[{"OBJECT_NAME":"HULIANWANG DIGUI-04","OBJECT_ID":"2024-240D","EPOCH":"2026-03-09T22:32:42.724032","MEAN_MOTION":13.24422196,"ECCENTRICITY":0.00020891,"INCLINATION":86.5029,"RA_OF_ASC_NODE":16.6484,"ARG_OF_PERICENTER":83.302,"MEAN_ANOMALY":276.8352,"EPHEMERIS_TYPE":0,"CLASSIFICATION_TYPE":"U","NORAD_CAT_ID":62326,"ELEMENT_SET_NO":999,"REV_AT_EPOCH":5950,"BSTAR":0.00014336067,"MEAN_MOTION_DOT":7.6e-7,"MEAN_MOTION_DDOT":0},{"OBJECT_NAME":"CZ-3C DEB","OBJECT_ID":"2012-008G","EPOCH":"2026-03-08T14:37:22.547136","MEAN_MOTION":2.19849057,"ECCENTRICITY":0.69764618,"INCLINATION":20.6014,"RA_OF_ASC_NODE":280.2288,"ARG_OF_PERICENTER":97.9113,"MEAN_ANOMALY":339.5703,"EPHEMERIS_TYPE":0,"CLASSIFICATION_TYPE":"U","NORAD_CAT_ID":40197,"ELEMENT_SET_NO":999,"REV_AT_EPOCH":9876,"BSTAR":0,"MEAN_MOTION_DOT":-1.36e-6,"MEAN_MOTION_DDOT":0}]
